[{"OBJECT_NAME":"STARLINK-1368","OBJECT_ID":"2020-025K","EPOCH":"2026-03-09T19:06:25.809120","MEAN_MOTION":15.30194629,"ECCENTRICITY":0.00014317,"INCLINATION":53.1591,"RA_OF_ASC_NODE":100.8341,"ARG_OF_PERICENTER":90.6838,"MEAN_ANOMALY":269.4327,"EPHEMERIS_TYPE":0,"CLASSIFICATION_TYPE":"U","NORAD_CAT_ID":45540,"ELEMENT_SET_NO":999,"REV_AT_EPOCH":32518,"BSTAR":2.6924662e-5,"MEAN_MOTION_DOT":4.38e-6,"MEAN_MOTION_DDOT":0},{"OBJECT_NAME":"EOSSAT-1","OBJECT_ID":"2023-001AW","EPOCH":"2026-03-09T17:40:07.010400","MEAN_MOTION":15.32339828,"ECCENTRICITY":0.00112629,"INCLINATION":97.3357,"RA_OF_ASC_NODE":130.2294,"ARG_OF_PERICENTER":110.3168,"MEAN_ANOMALY":249.9285,"EPHEMERIS_TYPE":0,"CLASSIFICATION_TYPE":"U","NORAD_CAT_ID":55053,"ELEMENT_SET_NO":999,"REV_AT_EPOCH":17668,"BSTAR":0.00024844399,"MEAN_MOTION_DOT":7.695e-5,"MEAN_MOTION_DDOT":0}]
